NORAD_CAT_ID,OBJECT_NAME,OBJECT_TYPE,EPOCH,MEAN_MOTION,ECCENTRICITY,INCLINATION,RA_OF_ASC_NODE,ARG_OF_PERICENTER,MEAN_ANOMALY,BSTAR,MEAN_MOTION_DOT,MEAN_MOTION_DDOT,TLE_LINE0,TLE_LINE1,TLE_LINE2,SEMIMAJOR_AXIS,PERIOD,APOGEE,PERIGEE,DECAYED
50197.0,STARLINK-3267,PAYLOAD,2022-08-16 11:20:34,15.08841479,0.000155,53.2183,320.5145,60.3645,299.7502,0.00012065,1.633e-05,0.0,0 STARLINK-3267,1 50197U 21125AT  22228.47262700  .00001633  00000-0  12065-3 0  9997,2 50197  53.2183 320.5145 0001550  60.3645 299.7502 15.08841479 40343,6917.876,95.437,540.813,538.669,0.0
50197.0,STARLINK-3267,PAYLOAD,2022-08-16 16:06:44,15.08839971,0.0001565999999999,53.2182,319.6227,59.7397,300.375,8.786799999999999e-05,1.111e-05,0.0,0 STARLINK-3267,1 50197U 21125AT  22228.67134780  .00001111  00000-0  87868-4 0  9990,2 50197  53.2182 319.6227 0001566  59.7397 300.3750 15.08839971 40376,6917.88,95.438,540.8290000000002,538.6619999999998,0.0
50197.0,STARLINK-3267,PAYLOAD,2022-08-17 12:46:45,15.08837813,0.0001636999999999,53.2181,315.7582,54.6486,305.4659,8.467799999999999e-05,1.06e-05,0.0,0 STARLINK-3267,1 50197U 21125AT  22229.53246893  .00001060  00000-0  84678-4 0  9994,2 50197  53.2181 315.7582 0001637  54.6486 305.4659 15.08837813 40500,6917.887,95.438,540.885,538.62,0.0
50197.0,STARLINK-3267,PAYLOAD,2022-08-18 06:15:59,15.08848961,0.0001631,53.218,312.4866,58.3806,301.7345,0.00020898,3.04e-05,0.0,0 STARLINK-3267,1 50197U 21125AT  22230.26110360  .00003040  00000-0  20898-3 0  9998,2 50197  53.2180 312.4866 0001631  58.3806 301.7345 15.08848961 40089,6917.853,95.437,540.846,538.59,0.0
50197.0,STARLINK-3267,PAYLOAD,2022-08-18 12:37:31,15.08856168,0.0001658,53.218,311.297,62.3227,297.7933,0.00041524,6.330000000000001e-05,0.0,0 STARLINK-3267,1 50197U 21125AT  22230.52606070  .00006330  00000-0  41524-3 0  9999,2 50197  53.2180 311.2970 0001658  62.3227 297.7933 15.08856168 40651,6917.831,95.437,540.8430000000002,538.549,0.0
50197.0,STARLINK-3267,PAYLOAD,2022-08-18 17:23:40,15.0886187,0.0001689,53.218,310.4046,62.3478,297.7685,0.00079914,0.00012461,0.0,0 STARLINK-3267,1 50197U 21125AT  22230.72477896  .00012461  00000-0  79914-3 0  9999,2 50197  53.2180 310.4046 0001689  62.3478 297.7685 15.08861870 40153,6917.814,95.436,540.847,538.51,0.0
50197.0,STARLINK-3267,PAYLOAD,2022-08-19 12:28:18,15.0884586,0.0001503,53.2177,306.8358,68.9635,291.1518,-8.4338e-06,-4.22e-06,0.0,0 STARLINK-3267,1 50197U 21125AT  22231.51965553 -.00000422  00000-0 -84338-5 0  9993,2 50197  53.2177 306.8358 0001503  68.9635 291.1518 15.08845860 40273,6917.861999999999,95.437,540.7669999999998,538.688,0.0
50197.0,STARLINK-3267,PAYLOAD,2022-08-20 10:43:44,15.08827272,0.0001743,53.2188,302.6745,61.2255,298.8912,-0.00013284,-2.401e-05,0.0,0 STARLINK-3267,1 50197U 21125AT  22232.44704026 -.00002401  00000-0 -13284-3 0  9991,2 50197  53.2188 302.6745 0001743  61.2255 298.8912 15.08827272 40414,6917.919,95.438,540.99,538.5790000000002,0.0
50197.0,STARLINK-3267,PAYLOAD,2022-08-20 17:05:16,15.08832783,0.0001817,53.2188,301.4841,59.9169,300.2003,-7.9964e-05,-1.56e-05,0.0,0 STARLINK-3267,1 50197U 21125AT  22232.71199657 -.00001560  00000-0 -79964-4 0  9992,2 50197  53.2188 301.4841 0001817  59.9169 300.2003 15.08832783 40982,6917.901999999999,95.438,541.024,538.51,0.0
50197.0,STARLINK-3267,PAYLOAD,2022-08-20 21:51:25,15.08835025,0.0001656,53.2184,300.5924,62.6263,297.4897,-8.94e-05,-1.7100000000000002e-05,0.0,0 STARLINK-3267,1 50197U 21125AT  22232.91071539 -.00001710  00000-0 -89400-4 0  9995,2 50197  53.2184 300.5924 0001656  62.6263 297.4897 15.08835025 40482,6917.896,95.438,540.906,538.615,0.0
50197.0,STARLINK-3267,PAYLOAD,2022-08-21 10:34:30,15.08835628,0.0001757,53.2179,298.214,59.9819,300.1347,3.8548e-06,-2.27e-06,0.0,0 STARLINK-3267,1 50197U 21125AT  22233.44063525 -.00000227  00000-0  38548-5 0  9999,2 50197  53.2179 298.2140 0001757  59.9819 300.1347 15.08835628 41096,6917.894,95.438,540.974,538.543,0.0
50197.0,STARLINK-3267,PAYLOAD,2022-08-21 13:45:18,15.08767142,0.0002208,53.2178,297.6196,59.418,300.703,0.00094114,0.00014692,0.0,0 STARLINK-3267,1 50197U 21125AT  22233.57313335  .00014692  00000-0  94114-3 0  9999,2 50197  53.2178 297.6196 0002208  59.4180 300.7030 15.08767142 40580,6918.103,95.442,541.496,538.441,0.0
50197.0,STARLINK-3267,PAYLOAD,2022-08-21 21:42:12,15.08829788,0.0001588999999999,53.2178,296.1323,59.0755,301.0393,0.00015657,2.204e-05,0.0,0 STARLINK-3267,1 50197U 21125AT  22233.90431699  .00002204  00000-0  15657-3 0  9991,2 50197  53.2178 296.1323 0001589  59.0755 301.0393 15.08829788 41167,6917.9119999999975,95.438,540.876,538.677,0.0
50197.0,STARLINK-3267,PAYLOAD,2022-08-22 04:03:45,15.08834833,0.0001601,53.2181,294.9428,57.0039,303.1107,0.00013844,1.916e-05,0.0,0 STARLINK-3267,1 50197U 21125AT  22234.16927663  .00001916  00000-0  13844-3 0  9996,2 50197  53.2181 294.9428 0001601  57.0039 303.1107 15.08834833 41209,6917.896,95.438,540.869,538.654,0.0
50197.0,STARLINK-3267,PAYLOAD,2022-08-22 10:25:18,15.08836672,0.0001625,53.218,293.7535,56.9614,303.1534,0.00014418,2.007e-05,0.0,0 STARLINK-3267,1 50197U 21125AT  22234.43423619  .00002007  00000-0  14418-3 0  9998,2 50197  53.2180 293.7535 0001625  56.9614 303.1534 15.08836672 41248,6917.891,95.438,540.88,538.631,0.0
50197.0,STARLINK-3267,PAYLOAD,2022-08-23 10:16:05,15.08832349,0.000154,53.2183,289.2920000000001,65.8302,294.2851,-5.5101e-06,-3.76e-06,0.0,0 STARLINK-3267,1 50197U 21125AT  22235.42784421 -.00000376  00000-0 -55101-5 0  9994,2 50197  53.2183 289.2920 0001540  65.8302 294.2851 15.08832349 40864,6917.904,95.438,540.8340000000002,538.703,0.0
50197.0,STARLINK-3267,PAYLOAD,2022-08-24 13:17:39,15.08836542,0.0001471,53.2182,284.2358,78.6261,281.4896,-3.7269e-05,-8.81e-06,0.0,0 STARLINK-3267,1 50197U 21125AT  22236.55392408 -.00000881  00000-0 -37269-4 0  9994,2 50197  53.2182 284.2358 0001471  78.6261 281.4896 15.08836542 41038,6917.891,95.438,540.774,538.738,0.0
50197.0,STARLINK-3267,PAYLOAD,2022-08-25 09:57:39,15.0883693,0.0001617,53.2179,280.3721,54.3903,305.7239,8.9172e-05,1.131e-05,0.0,0 STARLINK-3267,1 50197U 21125AT  22237.41504175  .00001131  00000-0  89172-4 0  9993,2 50197  53.2179 280.3721 0001617  54.3903 305.7239 15.08836930 41695,6917.89,95.438,540.873,538.636,0.0
50197.0,STARLINK-3267,PAYLOAD,2022-08-25 19:29:58,15.08838533,0.0001641,53.2179,278.588,54.4643,305.6502,9.0168e-05,1.147e-05,0.0,0 STARLINK-3267,1 50197U 21125AT  22237.81248130  .00001147  00000-0  90168-4 0  9997,2 50197  53.2179 278.5880 0001641  54.4643 305.6502 15.08838533 41221,6917.885,95.438,540.885,538.615,0.0
50197.0,STARLINK-3267,PAYLOAD,2022-08-26 09:48:26,15.08843419,0.0001664,53.2179,275.9116,54.3664,305.7483,7.521e-05,9.09e-06,0.0,0 STARLINK-3267,1 50197U 21125AT  22238.40863837  .00000909  00000-0  75210-4 0  9996,2 50197  53.2179 275.9116 0001664  54.3664 305.7483 15.08843419 41847,6917.87,95.437,540.886,538.5840000000002,0.0
50197.0,STARLINK-3267,PAYLOAD,2022-08-26 19:20:44,15.08845217,0.0001699,53.218,274.1275,54.3648,305.7503,8.6614e-05,1.091e-05,0.0,0 STARLINK-3267,1 50197U 21125AT  22238.80607603  .00001091  00000-0  86614-4 0  9990,2 50197  53.2180 274.1275 0001699  54.3648 305.7503 15.08845217 41904,6917.864000000001,95.437,540.905,538.554,0.0
50197.0,STARLINK-3267,PAYLOAD,2022-08-27 09:39:14,15.08834939,0.0001763,53.218,271.451,54.7815,305.3342,-3.3893e-05,-8.27e-06,0.0,0 STARLINK-3267,1 50197U 21125AT  22239.40224633 -.00000827  00000-0 -33893-4 0  9994,2 50197  53.2180 271.4510 0001763  54.7815 305.3342 15.08834939 41993,6917.896,95.438,540.98,538.5409999999998,0.0
50197.0,STARLINK-3267,PAYLOAD,2022-08-28 09:30:00,15.08840735,0.000185,53.2181,266.9904,56.5828,303.5341,-1.8118e-05,-5.76e-06,0.0,0 STARLINK-3267,1 50197U 21125AT  22240.39584379 -.00000576  00000-0 -18118-4 0  9994,2 50197  53.2181 266.9904 0001850  56.5828 303.5341 15.08840735 41610,6917.878000000002,95.438,541.023,538.4630000000002,0.0
50197.0,STARLINK-3267,PAYLOAD,2022-08-29 07:45:24,15.08840567,0.0001848,53.2174,262.8267,57.2322,302.8848,6.4701e-05,7.42e-06,0.0,0 STARLINK-3267,1 50197U 21125AT  22241.32320135  .00000742  00000-0  64701-4 0  9998,2 50197  53.2174 262.8267 0001848  57.2322 302.8848 15.08840567 42284,6917.879,95.438,541.0219999999998,538.465,0.0
50197.0,STARLINK-3267,PAYLOAD,2022-08-29 18:53:06,15.08841561,0.0001895,53.2178,260.746,59.2671,300.8508,0.0001196,1.616e-05,0.0,0 STARLINK-3267,1 50197U 21125AT  22241.78688224  .00001616  00000-0  11960-3 0  9993,2 50197  53.2178 260.7460 0001895  59.2671 300.8508 15.08841561 42355,6917.876,95.437,541.052,538.43,0.0
50197.0,STARLINK-3267,PAYLOAD,2022-08-30 07:36:11,15.08844684,0.0001934,53.2179,258.3673,59.3538,300.7644,9.7523e-05,1.264e-05,0.0,0 STARLINK-3267,1 50197U 21125AT  22242.31679786  .00001264  00000-0  97523-4 0  9995,2 50197  53.2179 258.3673 0001934  59.3538 300.7644 15.08844684 42430,6917.866,95.437,541.069,538.393,0.0
50197.0,STARLINK-3267,PAYLOAD,2022-08-31 07:26:59,15.08835303,0.0001971,53.2173,253.9075,59.1121,301.0065,-1.7652e-05,-5.69e-06,0.0,0 STARLINK-3267,1 50197U 21125AT  22243.31040731 -.00000569  00000-0 -17652-4 0  9992,2 50197  53.2173 253.9075 0001971  59.1121 301.0065 15.08835303 42583,6917.895,95.438,541.123,538.396,0.0
50197.0,STARLINK-3267,PAYLOAD,2022-09-01 07:17:45,15.0884089,0.0001976,53.2172,249.4471,58.3743,301.7442,4.7943e-06,-2.12e-06,0.0,0 STARLINK-3267,1 50197U 21125AT  22244.30400365 -.00000212  00000-0  47943-5 0  9996,2 50197  53.2172 249.4471 0001976  58.3743 301.7442 15.08840890 42738,6917.878000000002,95.437,541.11,538.376,0.0
50197.0,STARLINK-3267,PAYLOAD,2022-09-02 07:08:32,15.08841638,0.0001971,53.2176,244.9868,58.0173,302.1011,0.00011134,1.484e-05,0.0,0 STARLINK-3267,1 50197U 21125AT  22245.29760070  .00001484  00000-0  11134-3 0  9999,2 50197  53.2176 244.9868 0001971  58.0173 302.1011 15.08841638 42885,6917.875,95.437,541.104,538.377,0.0
